[{"OBJECT_NAME":"KUIPER-00250","OBJECT_ID":"2025-301Y","EPOCH":"2026-03-09T22:00:01.999584","MEAN_MOTION":14.86129837,"ECCENTRICITY":0.0009361,"INCLINATION":51.8993,"RA_OF_ASC_NODE":69.036,"ARG_OF_PERICENTER":63.5906,"MEAN_ANOMALY":8.0341,"EPHEMERIS_TYPE":0,"CLASSIFICATION_TYPE":"U","NORAD_CAT_ID":67155,"ELEMENT_SET_NO":999,"REV_AT_EPOCH":535,"BSTAR":-0.0031733957,"MEAN_MOTION_DOT":-0.00028238,"MEAN_MOTION_DDOT":0},{"OBJECT_NAME":"SL-14 R\/B","OBJECT_ID":"1984-013B","EPOCH":"2026-03-09T21:53:32.043552","MEAN_MOTION":14.85593199,"ECCENTRICITY":0.00173304,"INCLINATION":82.5338,"RA_OF_ASC_NODE":55.8507,"ARG_OF_PERICENTER":246.9653,"MEAN_ANOMALY":176.0622,"EPHEMERIS_TYPE":0,"CLASSIFICATION_TYPE":"U","NORAD_CAT_ID":14700,"ELEMENT_SET_NO":999,"REV_AT_EPOCH":25260,"BSTAR":7.3984203e-5,"MEAN_MOTION_DOT":6.65e-6,"MEAN_MOTION_DDOT":0}]
